start=new Date('2023-01-26T00:00:00.000Z').valueOf();
sats=[{"CLASSIFICATION_TYPE":"U","PERIAPSIS":"538.861","MEAN_ELEMENT_THEORY":"SGP4","EPHEMERIS_TYPE":"0","EPOCH":"2023-01-25T12:17:11.164992","DECAY_DATE":null,"PERIOD":"95.438","MEAN_MOTION_DDOT":"0.0000000000000","MEAN_MOTION":"15.08839852","LAUNCH_DATE":"2022-10-28","ELEMENT_SET_NO":"999","MEAN_ANOMALY":"260.1599","SEMIMAJOR_AXIS":"6917.881","SITE":"AFWTR","COUNTRY_CODE":"US","APOAPSIS":"540.631","FILE":"3761297","OBJECT_ID":"2022-141AA","ECCENTRICITY":"0.00012790","OBJECT_TYPE":"PAYLOAD","GP_ID":"223692038","ARG_OF_PERICENTER":"99.9537","TIME_SYSTEM":"UTC","TLE_LINE1":"1 54181U 22141AA  23025.51193478  .00003768  00000-0  25470-3 0  9994","REV_AT_EPOCH":"1388","BSTAR":"0.00025470000000","MEAN_MOTION_DOT":"0.00003768","TLE_LINE2":"2 54181  53.2169  77.8631 0001279  99.9537 260.1599 15.08839852 13881","OBJECT_NAME":"STARLINK-5227","CENTER_NAME":"EARTH","RA_OF_ASC_NODE":"77.8631","NORAD_CAT_ID":"54181","RCS_SIZE":"LARGE","REF_FRAME":"TEME","INCLINATION":"53.2169"},{"BSTAR":"0.00062526000000","TLE_LINE2":"2 54182  53.2132  61.0390 0005752  51.3614 308.7918 15.68919068 14145","MEAN_MOTION_DOT":"0.00073431","REV_AT_EPOCH":"1414","TLE_LINE1":"1 54182U 22141AB  23025.79079680  .00073431  00000-0  62526-3 0  9990","INCLINATION":"53.2132","NORAD_CAT_ID":"54182","REF_FRAME":"TEME","RCS_SIZE":"LARGE","CENTER_NAME":"EARTH","RA_OF_ASC_NODE":"61.0390","OBJECT_NAME":"STARLINK-5231","MEAN_MOTION_DDOT":"0.0000000000000","MEAN_MOTION":"15.68919068","PERIOD":"91.783","EPHEMERIS_TYPE":"0","DECAY_DATE":null,"EPOCH":"2023-01-25T18:58:44.843520","CLASSIFICATION_TYPE":"U","PERIAPSIS":"358.116","MEAN_ELEMENT_THEORY":"SGP4","OBJECT_TYPE":"PAYLOAD","ECCENTRICITY":"0.00057520","OBJECT_ID":"2022-141AB","TIME_SYSTEM":"UTC","ARG_OF_PERICENTER":"51.3614","GP_ID":"223720587","COUNTRY_CODE":"US","FILE":"3761360","APOAPSIS":"365.870","SITE":"AFWTR","MEAN_ANOMALY":"308.7918","ELEMENT_SET_NO":"999","LAUNCH_DATE":"2022-10-28","SEMIMAJOR_AXIS":"6740.128"},{"INCLINATION":"53.2147","REF_FRAME":"TEME","RCS_SIZE":"LARGE","NORAD_CAT_ID":"54183","RA_OF_ASC_NODE":"78.1115","CENTER_NAME":"EARTH","OBJECT_NAME":"STARLINK-5239","TLE_LINE2":"2 54183  53.2147  78.1115 0000981 103.4093 256.7009 15.08836355 13878","MEAN_MOTION_DOT":"0.00001043","BSTAR":"0.00008359200000","REV_AT_EPOCH":"1387","TLE_LINE1":"1 54183U 22141AC  23025.43832334  .00001043  00000-0  83592-4 0  9992","TIME_SYSTEM":"UTC","GP_ID":"223691039","ARG_OF_PERICENTER":"103.4093","OBJECT_TYPE":"PAYLOAD","OBJECT_ID":"2022-141AC","ECCENTRICITY":"0.00009810","FILE":"3761297","APOAPSIS":"540.435","COUNTRY_CODE":"US","SITE":"AFWTR","SEMIMAJOR_AXIS":"6917.892","MEAN_ANOMALY":"256.7009","LAUNCH_DATE":"2022-10-28","ELEMENT_SET_NO":"999","MEAN_MOTION":"15.08836355","MEAN_MOTION_DDOT":"0.0000000000000","PERIOD":"95.438","DECAY_DATE":null,"EPOCH":"2023-01-25T10:31:11.136576","EPHEMERIS_TYPE":"0","PERIAPSIS":"539.078","MEAN_ELEMENT_THEORY":"SGP4","CLASSIFICATION_TYPE":"U"},{"SITE":"AFWTR","MEAN_ANOMALY":"275.9519","LAUNCH_DATE":"2022-10-28","ELEMENT_SET_NO":"999","SEMIMAJOR_AXIS":"6917.878","OBJECT_TYPE":"PAYLOAD","OBJECT_ID":"2022-141AD","ECCENTRICITY":"0.00010810","TIME_SYSTEM":"UTC","ARG_OF_PERICENTER":"84.1596","GP_ID":"223719086","COUNTRY_CODE":"US","FILE":"3761360","APOAPSIS":"540.490","EPHEMERIS_TYPE":"0","DECAY_DATE":null,"EPOCH":"2023-01-25T19:52:53.102496","CLASSIFICATION_TYPE":"U","MEAN_ELEMENT_THEORY":"SGP4","PERIAPSIS":"538.995","MEAN_MOTION":"15.08840889","MEAN_MOTION_DDOT":"0.0000000000000","PERIOD":"95.437","CENTER_NAME":"EARTH","RA_OF_ASC_NODE":"76.2837","OBJECT_NAME":"STARLINK-5162","INCLINATION":"53.2176","NORAD_CAT_ID":"54184","REF_FRAME":"TEME","RCS_SIZE":"LARGE","TLE_LINE1":"1 54184U 22141AD  23025.82839239 -.00000878  00000-0 -37115-4 0  9994","BSTAR":"-0.00003711500000","TLE_LINE2":"2 54184  53.2176  76.2837 0001081  84.1596 275.9519 15.08840889 13939","MEAN_MOTION_DOT":"-0.00000878","REV_AT_EPOCH":"1393"},{"OBJECT_NAME":"STARLINK-5235","RA_OF_ASC_NODE":"77.8379","CENTER_NAME":"EARTH","REF_FRAME":"TEME","RCS_SIZE":"LARGE","NORAD_CAT_ID":"54185","INCLINATION":"53.2171","TLE_LINE1":"1 54185U 22141AE  23025.50824829  .00000583  00000-0  54689-4 0  9995","REV_AT_EPOCH":"1388","TLE_LINE2":"2 54185  53.2171  77.8379 0001179  92.3950 267.7178 15.08839000 13883","MEAN_MOTION_DOT":"0.00000583","BSTAR":"0.00005468900000","SEMIMAJOR_AXIS":"6917.883","MEAN_ANOMALY":"267.7178","LAUNCH_DATE":"2022-10-28","ELEMENT_SET_NO":"999","SITE":"AFWTR","FILE":"3761297","APOAPSIS":"540.564","COUNTRY_CODE":"US","TIME_SYSTEM":"UTC","GP_ID":"223692536","ARG_OF_PERICENTER":"92.3950","OBJECT_TYPE":"PAYLOAD","ECCENTRICITY":"0.00011790","OBJECT_ID":"2022-141AE","MEAN_ELEMENT_THEORY":"SGP4","PERIAPSIS":"538.933","CLASSIFICATION_TYPE":"U","DECAY_DATE":null,"EPOCH":"2023-01-25T12:11:52.652256","EPHEMERIS_TYPE":"0","PERIOD":"95.438","MEAN_MOTION_DDOT":"0.0000000000000","MEAN_MOTION":"15.08839000"},{"SITE":"AFWTR","SEMIMAJOR_AXIS":"6917.995","MEAN_ANOMALY":"121.0303","LAUNCH_DATE":"2022-10-28","ELEMENT_SET_NO":"999","TIME_SYSTEM":"UTC","GP_ID":"223720088","ARG_OF_PERICENTER":"108.4109","OBJECT_TYPE":"PAYLOAD","OBJECT_ID":"2022-141AF","ECCENTRICITY":"0.00015790","FILE":"3761360","APOAPSIS":"540.952","COUNTRY_CODE":"US","DECAY_DATE":null,"EPOCH":"2023-01-25T22:00:00.999936","EPHEMERIS_TYPE":"0","MEAN_ELEMENT_THEORY":"SGP4","PERIAPSIS":"538.767","CLASSIFICATION_TYPE":"U","MEAN_MOTION":"15.08802668","MEAN_MOTION_DDOT":"0.0000000000000","PERIOD":"95.440","RA_OF_ASC_NODE":"66.3978","CENTER_NAME":"EARTH","OBJECT_NAME":"STARLINK-5194","INCLINATION":"53.2178","REF_FRAME":"TEME","RCS_SIZE":"LARGE","NORAD_CAT_ID":"54186","TLE_LINE1":"1 54186U 22141AF  23025.91667824  .00052347  00000-0  32862-2 0  9993","TLE_LINE2":"2 54186  53.2178  66.3978 0001579 108.4109 121.0303 15.08802668  1304","MEAN_MOTION_DOT":"0.00052347","BSTAR":"0.00328620000000","REV_AT_EPOCH":"130"},{"PERIOD":"95.438","MEAN_MOTION_DDOT":"0.0000000000000","MEAN_MOTION":"15.08834070","MEAN_ELEMENT_THEORY":"SGP4","PERIAPSIS":"538.739","CLASSIFICATION_TYPE":"U","EPOCH":"2023-01-25T12:22:29.676000","DECAY_DATE":null,"EPHEMERIS_TYPE":"0","APOAPSIS":"540.788","FILE":"3761297","COUNTRY_CODE":"US","GP_ID":"223691540","ARG_OF_PERICENTER":"91.1332","TIME_SYSTEM":"UTC","OBJECT_ID":"2022-141AG","ECCENTRICITY":"0.00014810","OBJECT_TYPE":"PAYLOAD","SEMIMAJOR_AXIS":"6917.899","ELEMENT_SET_NO":"999","LAUNCH_DATE":"2022-10-28","MEAN_ANOMALY":"268.9830","SITE":"AFWTR","REV_AT_EPOCH":"1388","MEAN_MOTION_DOT":"0.00000843","TLE_LINE2":"2 54187  53.2182  77.8990 0001481  91.1332 268.9830 15.08834070 13883","BSTAR":"0.00007106000000","TLE_LINE1":"1 54187U 22141AG  23025.51562125  .00000843  00000-0  71060-4 0  9997","RCS_SIZE":"LARGE","REF_FRAME":"TEME","NORAD_CAT_ID":"54187","INCLINATION":"53.2182","OBJECT_NAME":"STARLINK-5240","RA_OF_ASC_NODE":"77.8990","CENTER_NAME":"EARTH"},{"SITE":"AFWTR","SEMIMAJOR_AXIS":"6917.929","MEAN_ANOMALY":"18.6584","ELEMENT_SET_NO":"999","LAUNCH_DATE":"2022-10-28","TIME_SYSTEM":"UTC","GP_ID":"223719586","ARG_OF_PERICENTER":"103.0476","OBJECT_TYPE":"PAYLOAD","ECCENTRICITY":"0.00011660","OBJECT_ID":"2022-141AH","FILE":"3761360","APOAPSIS":"540.601","COUNTRY_CODE":"US","DECAY_DATE":null,"EPOCH":"2023-01-25T20:00:01.000224","EPHEMERIS_TYPE":"0","PERIAPSIS":"538.988","MEAN_ELEMENT_THEORY":"SGP4","CLASSIFICATION_TYPE":"U","MEAN_MOTION":"15.08823963","MEAN_MOTION_DDOT":"0.0000000000000","PERIOD":"95.439","RA_OF_ASC_NODE":"66.8013","CENTER_NAME":"EARTH","OBJECT_NAME":"STARLINK-5238","INCLINATION":"53.2183","REF_FRAME":"TEME","RCS_SIZE":"LARGE","NORAD_CAT_ID":"54188","TLE_LINE1":"1 54188U 22141AH  23025.83334491  .00008560  00000-0  55548-3 0  9992","TLE_LINE2":"2 54188  53.2183  66.8013 0001166 103.0476  18.6584 15.08823963  1300","MEAN_MOTION_DOT":"0.00008560","BSTAR":"0.00055548000000","REV_AT_EPOCH":"130"},{"NORAD_CAT_ID":"54189","REF_FRAME":"TEME","RCS_SIZE":"LARGE","INCLINATION":"53.2184","OBJECT_NAME":"STARLINK-5182","CENTER_NAME":"EARTH","RA_OF_ASC_NODE":"77.5724","REV_AT_EPOCH":"1388","BSTAR":"0.00005677000000","TLE_LINE2":"2 54189  53.2184  77.5724 0001381  97.6284 262.4865 15.07199118 13888","MEAN_MOTION_DOT":"0.00000581","TLE_LINE1":"1 54189U 22141AJ  23025.46817243  .00000581  00000-0  56770-4 0  9997","COUNTRY_CODE":"US","FILE":"3761297","APOAPSIS":"545.722","OBJECT_TYPE":"PAYLOAD","ECCENTRICITY":"0.00013810","OBJECT_ID":"2022-141AJ","TIME_SYSTEM":"UTC","ARG_OF_PERICENTER":"97.6284","GP_ID":"223692039","MEAN_ANOMALY":"262.4865","ELEMENT_SET_NO":"999","LAUNCH_DATE":"2022-10-28","SEMIMAJOR_AXIS":"6922.900","SITE":"AFWTR","PERIOD":"95.541","MEAN_MOTION":"15.07199118","MEAN_MOTION_DDOT":"0.0000000000000","CLASSIFICATION_TYPE":"U","PERIAPSIS":"543.809","MEAN_ELEMENT_THEORY":"SGP4","EPHEMERIS_TYPE":"0","DECAY_DATE":null,"EPOCH":"2023-01-25T11:14:10.097952"},{"TLE_LINE1":"1 54190U 22141AK  23025.91667824  .00050391  00000-0  31639-2 0  9996","REV_AT_EPOCH":"130","BSTAR":"0.00316390000000","MEAN_MOTION_DOT":"0.00050391","TLE_LINE2":"2 54190  53.2178  66.3875 0001460 102.9902 131.6207 15.08814718  1303","OBJECT_NAME":"STARLINK-5281","CENTER_NAME":"EARTH","RA_OF_ASC_NODE":"66.3875","NORAD_CAT_ID":"54190","RCS_SIZE":"LARGE","REF_FRAME":"TEME","INCLINATION":"53.2178","CLASSIFICATION_TYPE":"U","MEAN_ELEMENT_THEORY":"SGP4","PERIAPSIS":"538.813","EPHEMERIS_TYPE":"0","EPOCH":"2023-01-25T22:00:00.999936","DECAY_DATE":null,"PERIOD":"95.439","MEAN_MOTION_DDOT":"0.0000000000000","MEAN_MOTION":"15.08814718","LAUNCH_DATE":"2022-10-28","ELEMENT_SET_NO":"999","MEAN_ANOMALY":"131.6207","SEMIMAJOR_AXIS":"6917.958","SITE":"AFWTR","COUNTRY_CODE":"US","APOAPSIS":"540.833","FILE":"3761360","ECCENTRICITY":"0.00014600","OBJECT_ID":"2022-141AK","OBJECT_TYPE":"PAYLOAD","ARG_OF_PERICENTER":"102.9902","GP_ID":"223720588","TIME_SYSTEM":"UTC"}];
